NORAD_CAT_ID,OBJECT_NAME,OBJECT_TYPE,EPOCH,MEAN_MOTION,ECCENTRICITY,INCLINATION,RA_OF_ASC_NODE,ARG_OF_PERICENTER,MEAN_ANOMALY,BSTAR,MEAN_MOTION_DOT,MEAN_MOTION_DDOT,TLE_LINE0,TLE_LINE1,TLE_LINE2,SEMIMAJOR_AXIS,PERIOD,APOGEE,PERIGEE,DECAYED
55434.0,STARLINK-5621,PAYLOAD,2023-11-11 11:20:48,14.98335614,0.0002806,70.0012,85.6587,269.1818,90.9019,-8.9558e-05,-1.162e-05,0.0,0 STARLINK-5621,1 55434U 23014AV  23315.47278385 -.00001162  00000-0 -89558-4 0  9990,2 55434  70.0012  85.6587 0002806 269.1818  90.9019 14.98335614 42922,6950.176,96.107,573.991,570.09,0.0
55434.0,STARLINK-5621,PAYLOAD,2023-11-11 14:33:04,14.9833579,0.0002817,70.0001,85.3226,269.6094,90.4743,-1.3596e-05,-2.55e-06,0.0,0 STARLINK-5621,1 55434U 23014AV  23315.60630727 -.00000255  00000-0 -13596-4 0  9998,2 55434  70.0001  85.3226 0002817 269.6094  90.4743 14.98335790 43880,6950.175,96.107,573.998,570.082,0.0
55434.0,STARLINK-5621,PAYLOAD,2023-11-11 17:45:20,14.98337626,0.0002798,70.0001,84.9862,265.658,94.4259,-2.744e-05,-4.2e-06,0.0,0 STARLINK-5621,1 55434U 23014AV  23315.73982497 -.00000420  00000-0 -27440-4 0  9993,2 55434  70.0001  84.9862 0002798 265.6580  94.4259 14.98337626 43904,6950.169,96.107,573.979,570.09,0.0
55434.0,STARLINK-5621,PAYLOAD,2023-11-12 11:22:49,14.98334906,0.000292,69.9997,83.1336,269.3083,90.7741,1.9858e-05,1.44e-06,0.0,0 STARLINK-5621,1 55434U 23014AV  23316.47418311  .00000144  00000-0  19858-4 0  9999,2 55434  69.9997  83.1336 0002920 269.3083  90.7741 14.98334906 43079,6950.178,96.107,574.072,570.013,0.0
55434.0,STARLINK-5621,PAYLOAD,2023-11-12 14:35:05,14.98335847,0.0002892,69.9999,82.7973,268.445,91.6378,3.4882e-05,3.23e-06,0.0,0 STARLINK-5621,1 55434U 23014AV  23316.60770177  .00000323  00000-0  34882-4 0  9998,2 55434  69.9999  82.7973 0002892 268.4450  91.6378 14.98335847 44037,6950.175,96.107,574.05,570.03,0.0
55434.0,STARLINK-5621,PAYLOAD,2023-11-12 17:47:21,14.98337353,0.0002887,69.9999,82.4605,269.2934,90.7894,5.0508e-05,5.1e-06,0.0,0 STARLINK-5621,1 55434U 23014AV  23316.74122001  .00000510  00000-0  50508-4 0  9991,2 55434  69.9999  82.4605 0002887 269.2934  90.7894 14.98337353 44055,6950.17,96.107,574.042,570.029,0.0
55434.0,STARLINK-5621,PAYLOAD,2023-11-13 11:24:50,14.98333437,0.0002849,70.0,80.6089,269.1964,90.8869,0.00011223,1.246e-05,0.0,0 STARLINK-5621,1 55434U 23014AV  23317.47557970  .00001246  00000-0  11223-3 0  9996,2 55434  70.0000  80.6089 0002849 269.1964  90.8869 14.98333437 43227,6950.182,96.107,574.027,570.067,0.0
55434.0,STARLINK-5621,PAYLOAD,2023-11-13 14:37:05,14.98336479,0.0002834,70.0,80.2722,267.1754,92.9081,0.00013409,1.508e-05,0.0,0 STARLINK-5621,1 55434U 23014AV  23317.60909682  .00001508  00000-0  13409-3 0  9991,2 55434  70.0000  80.2722 0002834 267.1754  92.9081 14.98336479 44180,6950.173,96.107,574.008,570.068,0.0
55434.0,STARLINK-5621,PAYLOAD,2023-11-14 11:26:51,14.98326019,0.0003041,69.9984,78.0816,271.1124,88.9687,3.1586e-05,2.84e-06,0.0,0 STARLINK-5621,1 55434U 23014AV  23318.47698434  .00000284  00000-0  31586-4 0  9994,2 55434  69.9984  78.0816 0003041 271.1124  88.9687 14.98326019 43370,6950.205,96.107,574.184,569.957,0.0
55434.0,STARLINK-5621,PAYLOAD,2023-11-14 14:39:07,14.98345786,0.0002679,69.9999,77.746,267.3562,92.7291,-0.00030144,-3.689e-05,0.0,0 STARLINK-5621,1 55434U 23014AV  23318.61049894 -.00003689  00000-0 -30144-3 0  9992,2 55434  69.9999  77.7460 0002679 267.3562  92.7291 14.98345786 44339,6950.144,96.106,573.871,570.147,0.0
55434.0,STARLINK-5621,PAYLOAD,2023-11-14 17:51:23,14.98326791,0.0002838,69.9998,77.4095,268.1559,91.9275,-4.2213e-06,-1.43e-06,0.0,0 STARLINK-5621,1 55434U 23014AV  23318.74402536 -.00000143  00000-0 -42213-5 0  9996,2 55434  69.9998  77.4095 0002838 268.1559  91.9275 14.98326791 44351,6950.203,96.107,574.04,570.095,0.0
55434.0,STARLINK-5621,PAYLOAD,2023-11-15 11:28:51,14.9833348,0.000293,69.9998,75.5584,268.1164,91.966,3.9586e-05,3.79e-06,0.0,0 STARLINK-5621,1 55434U 23014AV  23319.47837937  .00000379  00000-0  39586-4 0  9991,2 55434  69.9998  75.5584 0002930 268.1164  91.9660 14.98333480 43527,6950.182,96.107,574.084,570.011,0.0
55434.0,STARLINK-5621,PAYLOAD,2023-11-15 14:41:07,14.98340652,0.0002984,70.0001,75.2214,271.3583,88.7234,0.00012526,1.402e-05,0.0,0 STARLINK-5621,1 55434U 23014AV  23319.61189362  .00001402  00000-0  12526-3 0  9991,2 55434  70.0001  75.2214 0002984 271.3583  88.7234 14.98340652 44488,6950.16,96.106,574.099,569.951,0.0
55434.0,STARLINK-5621,PAYLOAD,2023-11-16 08:18:36,14.98327938,0.0002828,70.0,73.3695,273.7873,86.2963,0.00011171,1.24e-05,0.0,0 STARLINK-5621,1 55434U 23014AV  23320.34626100  .00001240  00000-0  11171-3 0  9994,2 55434  70.0000  73.3695 0002828 273.7873  86.2963 14.98327938 43656,6950.199,96.107,574.03,570.099,0.0
55434.0,STARLINK-5621,PAYLOAD,2023-11-16 09:54:44,14.98328034,0.0003084,69.9999,73.2015,274.1182,85.9625,0.00011745,1.309e-05,0.0,0 STARLINK-5621,1 55434U 23014AV  23320.41302080  .00001309  00000-0  11745-3 0  9993,2 55434  69.9999  73.2015 0003084 274.1182  85.9625 14.98328034 44603,6950.199,96.107,574.207,569.921,0.0
55434.0,STARLINK-5621,PAYLOAD,2023-11-17 11:32:53,14.98336969,0.0002314,70.0034,70.5117,253.4488,106.6417,0.00014985,1.696e-05,0.0,0 STARLINK-5621,1 55434U 23014AV  23321.48117160  .00001696  00000-0  14985-3 0  9992,2 55434  70.0034  70.5117 0002314 253.4488 106.6417 14.98336969 43822,6950.171,96.107,573.645,570.428,0.0
55434.0,STARLINK-5621,PAYLOAD,2023-11-17 13:08:59,14.9839697,0.0002867,70.001,70.3409,262.7825,97.3008,-0.00080984,-9.759e-05,0.0,0 STARLINK-5621,1 55434U 23014AV  23321.54791553 -.00009759  00000-0 -80984-3 0  9995,2 55434  70.0010  70.3409 0002867 262.7825  97.3008 14.98396970 44774,6949.986,96.103,573.843,569.858,0.0
55434.0,STARLINK-5621,PAYLOAD,2023-11-18 13:11:02,14.98355155,0.000227,70.0006,67.8158,255.083,105.0078,-0.00050302,-6.093e-05,0.0,0 STARLINK-5621,1 55434U 23014AV  23322.54933212 -.00006093  00000-0 -50302-3 0  9995,2 55434  70.0006  67.8158 0002270 255.0830 105.0078 14.98355155 43986,6950.115,96.105,573.558,570.402,0.0
55434.0,STARLINK-5621,PAYLOAD,2023-11-19 00:23:59,14.98329875,0.0002642,70.0015,66.6385,263.4489,96.637,-0.00016581,-2.071e-05,0.0,0 STARLINK-5621,1 55434U 23014AV  23323.01666296 -.00002071  00000-0 -16581-3 0  9996,2 55434  70.0015  66.6385 0002642 263.4489  96.6370 14.98329875 44050,6950.193,96.107,573.895,570.222,0.0
55434.0,STARLINK-5621,PAYLOAD,2023-11-19 11:36:55,14.98329815,0.0002395,70.0031,65.4625,233.7375,126.3563,-7.9265e-05,-1.038e-05,0.0,0 STARLINK-5621,1 55434U 23014AV  23323.48397779 -.00001038  00000-0 -79265-4 0  9995,2 55434  70.0031  65.4625 0002395 233.7375 126.3563 14.98329815 44128,6950.193,96.107,573.723,570.394,0.0
55434.0,STARLINK-5621,PAYLOAD,2023-11-19 13:13:02,14.98372463,0.0002549,70.0007,65.2903,255.1271,104.9606,-0.00042941,-5.218e-05,0.0,0 STARLINK-5621,1 55434U 23014AV  23323.55071979 -.00005218  00000-0 -42941-3 0  9998,2 55434  70.0007  65.2903 0002549 255.1271 104.9606 14.98372463 45074,6950.062,96.104,573.698,570.155,0.0
55434.0,STARLINK-5621,PAYLOAD,2023-11-19 16:25:19,14.98334309,0.0003206,70.0012,64.955,253.3974,106.6833,-9.7383e-05,-1.255e-05,0.0,0 STARLINK-5621,1 55434U 23014AV  23323.68425327 -.00001255  00000-0 -97383-4 0  9990,2 55434  70.0012  64.9550 0003206 253.3974 106.6833 14.98334309 45095,6950.18,96.107,574.273,569.816,0.0
55434.0,STARLINK-5621,PAYLOAD,2023-11-20 13:15:04,14.983279,0.0003106,70.0004,62.7657,267.5357,92.5447,0.00014254,1.608e-05,0.0,0 STARLINK-5621,1 55434U 23014AV  23324.55213358  .00001608  00000-0  14254-3 0  9991,2 55434  70.0004  62.7657 0003106 267.5357  92.5447 14.98327900 45229,6950.199,96.107,574.223,569.906,0.0
55434.0,STARLINK-5621,PAYLOAD,2023-11-20 16:27:20,14.9832836,0.0003107,70.0004,62.4291,267.832,92.2484,0.00013952,1.572e-05,0.0,0 STARLINK-5621,1 55434U 23014AV  23324.68565376  .00001572  00000-0  13952-3 0  9999,2 55434  70.0004  62.4291 0003107 267.8320  92.2484 14.98328360 44301,6950.198,96.107,574.222,569.904,0.0
55434.0,STARLINK-5621,PAYLOAD,2023-11-21 13:17:05,14.98330071,0.0002681,70.0012,60.2412,263.1551,96.9303,0.00010811,1.197e-05,0.0,0 STARLINK-5621,1 55434U 23014AV  23325.55353467  .00001197  00000-0  10811-3 0  9996,2 55434  70.0012  60.2412 0002681 263.1551  96.9303 14.98330071 45373,6950.193,96.107,573.921,570.194,0.0
55434.0,STARLINK-5621,PAYLOAD,2023-11-21 16:29:21,14.98326792,0.0002746,70.0012,59.9053,264.8992,95.1853,0.00025607,2.963e-05,0.0,0 STARLINK-5621,1 55434U 23014AV  23325.68705364  .00002963  00000-0  25607-3 0  9998,2 55434  70.0012  59.9053 0002746 264.8992  95.1853 14.98326792 44452,6950.203,96.107,573.976,570.159,0.0
55434.0,STARLINK-5621,PAYLOAD,2023-11-22 13:19:05,14.98348464,0.0002471,70.0012,57.7169,256.1952,103.8933,-5.0917e-06,-1.54e-06,0.0,0 STARLINK-5621,1 55434U 23014AV  23326.55492248 -.00000154  00000-0 -50917-5 0  9995,2 55434  70.0012  57.7169 0002471 256.1952 103.8933 14.98348464 45526,6950.136,96.106,573.718,570.283,0.0
55434.0,STARLINK-5621,PAYLOAD,2023-11-22 16:31:20,14.98348809,0.0003017,70.0011,57.38,275.7946,84.2869,0.0002353,2.717e-05,0.0,0 STARLINK-5621,1 55434U 23014AV  23326.68843689  .00002717  00000-0  23530-3 0  9992,2 55434  70.0011  57.3800 0003017 275.7946  84.2869 14.98348809 44601,6950.135,96.106,574.097,569.903,0.0
55434.0,STARLINK-5621,PAYLOAD,2023-11-23 10:08:51,14.98322431,0.000294,70.0014,55.5295,263.7473,96.3351,-9.2665e-05,-1.198e-05,0.0,0 STARLINK-5621,1 55434U 23014AV  23327.42282005 -.00001198  00000-0 -92665-4 0  9994,2 55434  70.0014  55.5295 0002940 263.7473  96.3351 14.98322431 44713,6950.216,96.107,574.125,570.038,0.0
55434.0,STARLINK-5621,PAYLOAD,2023-11-23 13:21:07,14.9832642,0.0002879,70.0022,55.1964,247.1087,112.9769,-3.8753e-05,-5.55e-06,0.0,0 STARLINK-5621,1 55434U 23014AV  23327.55633653 -.00000555  00000-0 -38753-4 0  9991,2 55434  70.0022  55.1964 0002879 247.1087 112.9769 14.98326420 45675,6950.204,96.107,574.07,570.068,0.0
